{
    "links": {
        "self": "http://www.neowsapp.com/rest/v1/neo/3714000?api_key=iIulBulltgU6a56xZRHN4H3l9WmuAYTsLGpBGhQ2"
    },
    "id": "3714000",
    "neo_reference_id": "3714000",
    "name": "(2015 FM35)",
    "designation": "2015 FM35",
    "nasa_jpl_url": "http://ssd.jpl.nasa.gov/sbdb.cgi?sstr=3714000",
    "absolute_magnitude_h": 24.6,
    "estimated_diameter": {
        "kilometers": {
            "estimated_diameter_min": 0.0319561887,
            "estimated_diameter_max": 0.0714562102
        },
        "meters": {
            "estimated_diameter_min": 31.9561886721,
            "estimated_diameter_max": 71.4562101727
        },
        "miles": {
            "estimated_diameter_min": 0.0198566489,
            "estimated_diameter_max": 0.0444008168
        },
        "feet": {
            "estimated_diameter_min": 104.8431420431,
            "estimated_diameter_max": 234.436392583
        }
    },
    "is_potentially_hazardous_asteroid": false,
    "close_approach_data": [
        {
            "close_approach_date": "2015-02-14",
            "close_approach_date_full": "2015-Feb-14 04:01",
            "epoch_date_close_approach": 1423886460000,
            "relative_velocity": {
                "kilometers_per_second": "5.2910780534",
                "kilometers_per_hour": "19047.8809923097",
                "miles_per_hour": "11835.6124976938"
            },
            "miss_distance": {
                "astronomical": "0.079143205",
                "lunar": "30.786706745",
                "kilometers": "11839654.89297335",
                "miles": "7356820.41019823"
            },
            "orbiting_body": "Earth"
        }
    ],
    "orbital_data": {
        "orbit_id": "4",
        "orbit_determination_date": "2017-04-06 08:34:54",
        "first_observation_date": "2015-03-20",
        "last_observation_date": "2015-03-29",
        "data_arc_in_days": 9,
        "observations_used": 13,
        "orbit_uncertainty": "8",
        "minimum_orbit_intersection": ".0746212",
        "jupiter_tisserand_invariant": "4.331",
        "epoch_osculation": "2457102.5",
        "eccentricity": ".362612513893148",
        "semi_major_axis": "1.572288137449118",
        "inclination": "4.219295303818923",
        "ascending_node_longitude": "216.4097722604742",
        "orbital_period": "720.106338287648",
        "perihelion_distance": "1.002156783364318",
        "perihelion_argument": "266.8873971340872",
        "aphelion_distance": "2.142419491533918",
        "perihelion_time": "2457049.479301082159",
        "mean_anomaly": "26.50643466881726",
        "mean_motion": ".4999261648717737",
        "equinox": "J2000",
        "orbit_class": {
            "orbit_class_type": "APO",
            "orbit_class_description": "Near-Earth asteroid orbits which cross the Earth’s orbit similar to that of 1862 Apollo",
            "orbit_class_range": "a (semi-major axis) > 1.0 AU; q (perihelion) < 1.017 AU"
        }
    },
    "is_sentry_object": false
}